HULIANWANG DIGUI-144    
1 67442U 26007H   26038.39263977  .00000007  00000+0  15225-3 0  9997
2 67442  50.0090 196.4111 0001932 359.9166   0.1726 13.75792192  3449
HULIANWANG DIGUI-145    
1 67443U 26007J   26038.97030676  .00000021  00000+0  16871-3 0  9994
2 67443  50.0093 194.1176 0000448 266.2774  93.8067 13.74722896  3524
CZ-8A R/B               
1 67444U 26007K   26039.49229279  .00000044  00000+0  10086-3 0  9999
2 67444  50.0088 187.5033 0092229 171.7036 188.5422 14.13552250  3656
STARLINK-36542          
1 67445U 26008A   26039.50002314 -.00023590  00000+0 -39767-3 0  9992
2 67445  43.0006  11.5226 0000782 286.5005 354.5728 15.50568430  5108
STARLINK-36539          
1 67446U 26008B   26039.50002314 -.00040861  00000+0 -69424-3 0  9996
2 67446  43.0005  11.4261 0001200 278.6891  41.6727 15.50582759  5100
STARLINK-36440          
1 67447U 26008C   26039.50002314 -.02067091  00000+0 -33159-1 0  9997
2 67447  43.0005  11.0396 0001218 276.8392 200.3184 15.55429695  5106
STARLINK-36423          
1 67448U 26008D   26039.50002314 -.00056246  00000+0 -95938-3 0  9991
2 67448  43.0004  11.6378 0001550 271.0511 323.0818 15.50591363  5105
STARLINK-36519          
1 67449U 26008E   26039.50002314 -.02216595  00000+0 -39545-1 0  9999
2 67449  43.0004  11.1432 0001213 276.8373 157.9868 15.52794010  5102
STARLINK-36525          
1 67450U 26008F   26039.50002314 -.00047147  00000+0 -80311-3 0  9993
2 67450  43.0005  11.5074 0001613 269.0583  17.5937 15.50562803  5101
STARLINK-36511          
1 67451U 26008G   26039.50002314 -.00060823  00000+0 -10385-2 0  9993
2 67451  43.0003  11.6101 0001400 272.7059 332.3146 15.50593708  5103
STARLINK-36524          
1 67452U 26008H   26039.50002314 -.00060479  00000+0 -10325-2 0  9995
2 67452  43.0005  11.4584 0001292 268.7308  37.5201 15.50593640  5101
STARLINK-36518          
1 67453U 26008J   26039.50002314 -.00043169  00000+0 -73389-3 0  9993
2 67453  42.9996  10.9570 0000696 279.6862 224.9320 15.50587903  5122
